[{"OBJECT_NAME":"OBJECT L","OBJECT_ID":"2023-085L","EPOCH":"2026-03-09T23:02:21.999840","MEAN_MOTION":15.29079976,"ECCENTRICITY":0.0005428,"INCLINATION":97.486,"RA_OF_ASC_NODE":178.8598,"ARG_OF_PERICENTER":50.8528,"MEAN_ANOMALY":309.3193,"EPHEMERIS_TYPE":0,"CLASSIFICATION_TYPE":"U","NORAD_CAT_ID":57014,"ELEMENT_SET_NO":999,"REV_AT_EPOCH":15144,"BSTAR":0.00063462603,"MEAN_MOTION_DOT":0.00017871,"MEAN_MOTION_DDOT":0},{"OBJECT_NAME":"STARLINK-32164","OBJECT_ID":"2024-131S","EPOCH":"2026-03-09T22:48:37.778400","MEAN_MOTION":15.301867,"ECCENTRICITY":0.00013434,"INCLINATION":53.1609,"RA_OF_ASC_NODE":51.5632,"ARG_OF_PERICENTER":88.1024,"MEAN_ANOMALY":272.0131,"EPHEMERIS_TYPE":0,"CLASSIFICATION_TYPE":"U","NORAD_CAT_ID":60271,"ELEMENT_SET_NO":999,"REV_AT_EPOCH":9165,"BSTAR":4.3623419e-5,"MEAN_MOTION_DOT":9.32e-6,"MEAN_MOTION_DDOT":0}]
